satname,norad_id,inclination_deg,eccentricity,mean_motion_rev_per_day,perigee_km,apogee_km,l1,l2
STARLINK-1277,45369,53.0535,0.0001377,15.06385926,546.3010666209511,548.2083194932193,1 45369U 20019K   25289.57190634 -.00000377  00000+0 -64388-5 0  9992,2 45369  53.0535  94.2157 0001377  91.1807 268.9340 15.06385926308000
STARLINK-1281,45370,53.0542,0.000127,15.06391491,546.3581143416259,548.1171594994039,1 45370U 20019L   25289.56814108  .00001012  00000+0  86850-4 0  9994,2 45370  53.0542  93.6053 0001270  90.5091 269.6044 15.06391491308012
STARLINK-1300,45374,53.0539,0.0001396,15.06390904,546.2726534580261,548.2062185589593,1 45374U 20019Q   25289.59026343 -.00000209  00000+0  48510-5 0  9997,2 45374  53.0539  93.5033 0001396  88.0182 272.0967 15.06390904308011
STARLINK-1302,45375,53.0537,0.0001302,15.06391893,546.3347212197787,548.1380884543987,1 45375U 20019R   25289.60500057  .00000843  00000+0  75506-4 0  9996,2 45375  53.0537  93.4394 0001302  83.5648 276.5489 15.06391893308019
STARLINK-1304,45376,53.0522,0.0001201,15.06405987,546.3614765482716,548.0249408644022,1 45376U 20019S   25289.55708504  .00001250  00000+0  10275-3 0  9992,2 45376  53.0522  93.6532 0001201  87.6845 272.4282 15.06405987308007
STARLINK-1305,45377,53.0541,0.0001681,15.14984054,519.8672216893465,522.1867206164479,1 45377U 20019T   25289.66668981  .02158708  00000+0  10377+0 0  9991,2 45377  53.0541  93.0301 0001681  91.3130  71.1299 15.14984054  5864
STARLINK-1319,45379,53.0541,0.0001367,15.06385937,546.3079583033132,548.2013603829782,1 45379U 20019V   25289.57551688  .00000610  00000+0  59880-4 0  9991,2 45379  53.0541  93.5734 0001367  90.1664 269.9482 15.06385937308011
STARLINK-1266,45383,53.0573,0.0001234,15.0639314,546.3779923235115,548.0871735365799,1 45383U 20019Z   25289.11292201  .00000731  00000+0  67985-4 0  9998,2 45383  53.0573  75.6490 0001234  91.9766 268.1364 15.06393140308213
STARLINK-1267,45384,53.0546,0.0001207,15.0640181,546.3701216531463,548.041899455894,1 45384U 20019AA  25288.83286830 -.00003926  00000+0 -24484-3 0  9995,2 45384  53.0546  77.5623 0001207  88.3274 271.7853 15.06401810308168
STARLINK-1272,45386,53.0545,0.0001276,15.12751917,526.9307992989106,528.6931974832996,1 45386U 20019AC  25289.66668981  .01091895  00000+0  56840-1 0  9990,2 45386  53.0545  73.0975 0001276  84.2800 115.2961 15.12751917  5851
STARLINK-1274,45387,53.0365,0.0005684,15.27443152,479.55876766717574,487.359029884904,1 45387U 20019AD  25289.08973390  .00036203  00000+0  13360-2 0  9992,2 45387  53.0365  63.3957 0005684 173.4194 186.6880 15.27443152308389
STARLINK-1280,45388,53.0553,8.74e-05,15.14979245,520.4385829530474,521.6445593672852,1 45388U 20019AE  25289.66668981  .02141095  00000+0  10301+0 0  9991,2 45388  53.0553  92.9842 0000874  99.7073 208.4817 15.14979245  5854
STARLINK-1283,45389,53.0524,0.0001302,15.26746025,484.6538021679462,486.44110559973797,1 45389U 20019AF  25289.10576210  .00012465  00000+0  47996-3 0  9994,2 45389  53.0524  74.5967 0001302  86.7257 273.3890 15.26746025308235
STARLINK-1284,45390,53.0474,1.26e-05,15.06391597,547.1500523264103,547.3245717590735,1 45390U 20019AG  25289.11661224  .00001852  00000+0  14320-3 0  9990,2 45390  53.0474  75.6337 0000126 315.4311  44.6668 15.06391597308218
STARLINK-1292,45394,53.0484,0.0007205,15.85100016,311.21997397619,320.86628754461526,1 45394U 20019AL  25289.66668981  .00309842  00000+0  12427-2 0  9996,2 45394  53.0484  32.2073 0007205 314.5917 298.0357 15.85100016  5941
STARLINK-1297,45395,53.0537,0.0001117,15.0639749,546.4456884442452,547.9928130306598,1 45395U 20019AM  25288.68904139  .00003084  00000+0  22584-3 0  9991,2 45395  53.0537  77.5505 0001117  92.1107 268.0010 15.06397490307337
STARLINK-1307,45397,53.0546,0.0001138,15.06400276,546.4226074685275,547.9988166077883,1 45397U 20019AP  25289.14609343  .00000425  00000+0  47400-4 0  9995,2 45397  53.0546  75.4974 0001138  84.5563 275.5556 15.06400276308044
STARLINK-1312,45398,53.0461,0.0003628,15.86454455,309.8052082981776,314.65974038876084,1 45398U 20019AQ  25289.66668981  .00393887  00000+0  14665-2 0  9998,2 45398  53.0461  31.7355 0003628 287.8557 131.6170 15.86454455  6041
STARLINK-1255,45399,53.0534,0.0001243,15.18969402,508.0979801595495,509.8101109934796,1 45399U 20019AR  25289.66668981  .02050243  00000+0  86998-1 0  9994,2 45399  53.0534  62.8883 0001243  76.8254 186.1712 15.18969402  5803
STARLINK-1259,45403,53.0463,0.000328,16.02695324,264.7784188441974,269.13760117076345,1 45403U 20019AV  25289.62066303  .00262245  41084-4  43146-3 0  9993,2 45403  53.0463  11.3947 0003280  24.9791 335.1398 16.02695324308965
STARLINK-1260,45404,53.0554,0.0002026,15.06393636,545.8279831808486,548.6341423198746,1 45404U 20019AW  25289.08067207 -.00000638  00000+0 -23947-4 0  9992,2 45404  53.0554  65.7929 0002026  90.3419 269.7802 15.06393636308068
STARLINK-1263,45405,53.055,0.0001296,15.06414088,546.2708610064974,548.0659001611448,1 45405U 20019AX  25288.80053565  .00003292  00000+0  23973-3 0  9999,2 45405  53.0550  67.0507 0001296  89.0538 271.0599 15.06414088308027
STARLINK-1265,45406,53.0555,0.0001377,15.06403066,546.2485419033155,548.1557803082842,1 45406U 20019AY  25289.07329584  .00002357  00000+0  17708-3 0  9997,2 45406  53.0555  65.8266 0001377  89.4077 270.7070 15.06403066308061
STARLINK-1278,45408,53.0538,0.0001333,15.13453222,524.7581660500055,526.5987232475482,1 45408U 20019BA  25289.66668981  .01109222  00000+0  56553-1 0  9990,2 45408  53.0538  93.0822 0001333  83.1117 154.5269 15.13453222  5850
STARLINK-1296,45412,53.0556,0.0001259,15.06426154,546.2595095632096,548.0032921465445,1 45412U 20019BE  25289.07697011 -.00005897  00000+0 -37704-3 0  9999,2 45412  53.0556  65.8091 0001259  99.9648 260.1483 15.06426154308068
STARLINK-1298,45413,53.0476,0.0007002,15.4898161,414.94411841973124,424.46381490944805,1 45413U 20019BF  25289.62236218  .00129189  00000+0  23172-2 0  9991,2 45413  53.0476  44.1719 0007002 227.2034 132.8385 15.48981610308519
STARLINK-1309,45414,53.0557,0.0002016,15.06399439,545.8171267071039,548.6094279389208,1 45414U 20019BG  25288.69364065 -.00000362  00000+0 -53732-5 0  9991,2 45414  53.0557  67.5302 0002016  97.3840 262.7378 15.06399439307990
STARLINK-1316,45415,53.0537,0.0001299,15.06381953,546.3672599835345,548.1664799089467,1 45415U 20019BH  25289.64831378  .00000136  00000+0  28054-4 0  9999,2 45415  53.0537  63.2427 0001299  87.3261 272.7877 15.06381953308176
STARLINK-1318,45416,53.0528,0.000273,15.5849851,390.153673546507,393.85016939763045,1 45416U 20019BJ  25289.56310783  .00050925  00000+0  65721-3 0  9995,2 45416  53.0528  36.9121 0002730 346.5518  13.5420 15.58498510308520
STARLINK-1286,45417,53.0545,0.0001668,15.10902108,532.294667313502,534.6003719092441,1 45417U 20019BK  25289.66668981  .00027205  00000+0  16261-2 0  9992,2 45417  53.0545  93.1079 0001668  98.1642 183.5927 15.10902108  5709
STARLINK-1308,45419,53.0533,0.0001281,15.06390473,546.3536160843569,548.1278978656928,1 45419U 20019BM  25289.54970934  .00001176  00000+0  97846-4 0  9994,2 45419  53.0533  93.6870 0001281  83.5576 276.5559 15.06390473307741
STARLINK-1329,45531,53.0572,0.0001195,15.06399613,546.3851647433803,548.0403233322068,1 45531U 20025A   25289.58471750  .00002187  00000+0  16564-3 0  9992,2 45531  53.0572  33.5307 0001195  84.6034 275.5091 15.06399613303372
STARLINK-1338,45532,53.0567,0.0001596,15.06390744,546.1346362329732,548.3452165478766,1 45532U 20025B   25289.46309817  .00000101  00000+0  25656-4 0  9991,2 45532  53.0567  34.0771 0001596  97.9524 262.1646 15.06390744303356
STARLINK-1350,45535,53.0758,9.4e-05,15.31769217,469.88989567711815,471.17744576321365,1 45535U 20025E   25289.48064321  .00011585  00000+0  38366-3 0  9993,2 45535  53.0758 348.2471 0000940  67.5224 292.5876 15.31769217304020
STARLINK-1362,45538,53.0533,0.0001134,15.06396305,546.4375467935597,548.0082184149351,1 45538U 20025H   25289.56163298  .00004241  00000+0  30344-3 0  9997,2 45538  53.0533  33.3510 0001134  86.4928 273.6191 15.06396305303370
STARLINK-1368,45540,53.0554,0.0001276,15.06385735,546.3715983990242,548.1389585084844,1 45540U 20025K   25289.56629532  .00002296  00000+0  17305-3 0  9998,2 45540  53.0554  33.6123 0001276  90.9428 269.1707 15.06385735303368
STARLINK-1371,45542,53.0566,0.0001287,15.06388439,546.3556940451635,548.1382878844388,1 45542U 20025M   25289.00603359  .00001743  00000+0  13590-3 0  9996,2 45542  53.0566  36.1274 0001287  89.9003 270.2133 15.06388439303288
STARLINK-1372,45543,53.0538,0.0001546,15.0638798,546.1777331695512,548.3190623345354,1 45543U 20025N   25289.50732267  .00002020  00000+0  15453-3 0  9992,2 45543  53.0538  33.8754 0001546  97.8183 262.2981 15.06387980302450
STARLINK-1373,45544,53.0541,0.0001445,15.06385936,546.2539433128313,548.2553815032679,1 45544U 20025P   25289.59211148  .00002192  00000+0  16606-3 0  9993,2 45544  53.0541  33.4973 0001445 100.4468 259.6684 15.06385936303370
STARLINK-1294,45551,53.051,0.0007411,15.57049293,391.181659347867,401.22258479460106,1 45551U 20025W   25289.42272884  .00056644  00000+0  76970-3 0  9998,2 45551  53.0510 332.9547 0007411 359.3734   0.7267 15.57049293304213
STARLINK-1323,45553,53.0249,0.000395,16.18437874,221.18884515482205,226.404372705877,1 45553U 20025Y   25289.51622451  .01393061  16177-2  81706-3 0  9995,2 45553  53.0249 306.8277 0003950  54.1754 305.9650 16.18437874303286
STARLINK-1325,45554,53.0593,0.0001611,15.54270781,403.18056144836555,405.36585401729735,1 45554U 20025Z   25289.66668981  .00262492  00000+0  38276-2 0  9990,2 45554  53.0593 324.6004 0001611  72.8981  83.2236 15.54270781  5923
STARLINK-1327,45555,53.0544,0.0001365,15.06418837,546.2085236501734,548.0991280456292,1 45555U 20025AA  25289.49810612  .00006217  00000+0  43570-3 0  9997,2 45555  53.0544  13.9187 0001365  93.6174 266.4971 15.06418837303634
